SupplierID;SupplierName;Address;City;PostalCode;Country;Phone
1;Levi Murray;P.O. Box 663, 1547 Non Rd.;Brussegem;637877;El Salvador;(574) 353-6199
2;Ciaran Garcia;8540 Iaculis St.;Timon;67741-639;France;(780) 147-5688
3;Calvin Whitfield;744-3695 Vel Street;Diksmuide;929594;Malawi;(261) 404-8229
4;Armand Matthews;233 Non St.;Pollein;26079;Honduras;(730) 579-8812
5;Arthur Harris;P.O. Box 548, 3629 Ut Rd.;Terragnolo;72397;Curaçao;(832) 860-8356
6;Colorado Figueroa;852-1007 Fringilla Ave;Haridwar;25927;Tonga;(198) 492-6986
7;Arden Church;Ap #274-1128 Sed, Rd.;Green Bay;185294;Afghanistan;(360) 357-5200
8;Price Howell;Ap #193-5358 Integer Rd.;Valtournenche;216500;Mexico;(768) 480-6221
9;Kadeem Frye;Ap #247-6869 Libero. Street;Connah's Quay;18546;Iran;(585) 536-7676
10;Marsden Walker;396-7152 Justo Rd.;Ziano di Fiemme;53989-466;Montenegro;(982) 307-5453
11;Hoyt Valentine;816 Varius. St.;Wansin;8670;Congo, the Democratic Republic of the;(315) 901-3633
12;Ezra Hull;230-773 Ligula. Street;Stratford-upon-Avon;851033;Israel;(522) 841-3803
13;Wade Obrien;Ap #536-3207 Ac Avenue;Bear;86627-15976;New Zealand;(665) 495-5493
14;Kevin Davis;639-4116 Luctus, Rd.;Yurzhnouralsk;832556;France;(239) 822-1049
15;Jeremy Contreras;Ap #487-877 Mollis Avenue;Bottrop;6822;Kiribati;(387) 386-6557
16;Xanthus Luna;Ap #193-1607 Integer Rd.;Bonvicino;19074;Mayotte;(757) 372-6684
17;Omar Campos;3069 Phasellus Ave;Pfungstadt;8305 OE;Burkina Faso;(303) 566-9211
18;Deacon Blankenship;2205 Libero Avenue;Oldenzaal;95983;Cyprus;(160) 620-3949
19;Hammett Aguirre;4148 Per Ave;Saint Paul;415577;Trinidad and Tobago;(430) 549-9418
20;Keith Russell;P.O. Box 279, 7346 Luctus Road;Sint-Stevens-Woluwe;H3L 1R1;Japan;(556) 279-1091
21;Micah Conner;Ap #438-1523 Sapien. Ave;Corbara;10205;Samoa;(962) 698-9267
22;Colin Rhodes;Ap #523-1591 Bibendum Rd.;Homburg;S64 5VV;Albania;(671) 953-1026
23;Alden Chavez;7294 Nisl St.;Cauquenes;77583;Croatia;(646) 460-2801
24;Lyle Moore;Ap #566-7411 Orci Av.;Greymouth;Y9 4RG;Montenegro;(882) 709-8625
25;Curran Martinez;351-6619 Diam. St.;Moulins;71806;Iceland;(350) 659-6681
26;Jasper Herman;1116 Semper Avenue;Delft;7266;Jordan;(434) 882-3163
27;Talon Duran;P.O. Box 133, 8442 Integer Avenue;Vorst;76-971;Aruba;(657) 656-1496
28;Vaughan Mcfadden;709-7669 Ut Rd.;Chelsea;16994;Ireland;(445) 683-9638
29;Alan Brewer;P.O. Box 277, 4425 Justo Street;Millet;2248;Argentina;(896) 269-6974
30;Avram King;654-8558 Mauris. Rd.;Stevoort;Z1003;Georgia;(272) 372-7418
